     2.100          NAVIGATION                              RINEX VERSION / TYPE
fic2rin                                 05/07/2017 00:07:33 PGM / RUN BY / DATE
                                                            END OF HEADER
 2 17  5  6  1 59 44.0  .425524543971D-03 -.773070496507D-11  .000000000000D+00
     .000000000000D+00 -.291875000000D+02  .530486382601D-08  .304041858658D+01
    -.146217644215D-05  .167879423825D-01  .350363552570D-05  .515377701187D+04
     .525584000000D+06  .149011611938D-06 -.207090764200D+01 -.262632966042D-06
     .945933052926D+00  .299093750000D+03 -.198273863730D+01 -.834999066777D-08
    -.925038531568D-10  .100000000000D+01  .194700000000D+04  .000000000000D+00
     .240000000000D+01  .000000000000D+00 -.204890966415D-07  .000000000000D+00
     .522756000000D+06  .400000000000D+01
18 17  5  6  1 59 44.0  .614061951637D-03  .193267624127D-11  .000000000000D+00
     .800000000000D+01 -.504687500000D+02  .546487049093D-08  .982960989985D-03
    -.247918069363D-05  .180336149642D-01  .938400626183D-05  .515375717926D+04
     .525584000000D+06 -.266358256340D-06 -.102034741366D+01  .139698386192D-06
     .925363329006D+00  .184031250000D+03 -.180770565029D+01 -.875893627342D-08
    -.357157734196D-09  .100000000000D+01  .194700000000D+04  .000000000000D+00
     .240000000000D+01  .000000000000D+00 -.111758708954D-07  .800000000000D+01
     .522816000000D+06  .400000000000D+01
22 17  5  6  1 59 44.0  .192159786820D-04 -.120508047985D-10  .000000000000D+00
     .640000000000D+02 -.390000000000D+02  .527557689181D-08 -.194474624370D+01
    -.208429992199D-05  .753007247113D-02  .954233109951D-05  .515383629227D+04
     .525584000000D+06  .130385160446D-06 -.102044829356D+01  .856816768646D-07
     .923397358749D+00  .172187500000D+03 -.174145067272D+01 -.825962976102D-08
    -.316798910232D-09  .100000000000D+01  .194700000000D+04  .000000000000D+00
     .240000000000D+01  .000000000000D+00 -.176951289177D-07  .640000000000D+02
     .522876000000D+06  .400000000000D+01
 2 17  5  6  3 59 44.0  .425469595939D-03 -.773070496507D-11  .000000000000D+00
     .300000000000D+01 -.281875000000D+02  .529129183211D-08 -.219262833493D+01
    -.132620334625D-05  .167871861486D-01  .380724668503D-05  .515377847481D+04
     .532784000000D+06  .210478901863D-06 -.207096927621D+01  .707805156708D-07
     .945933387934D+00  .293218750000D+03 -.198275327526D+01 -.836534845034D-08
     .169649923743D-09  .100000000000D+01  .194700000000D+04  .000000000000D+00
     .240000000000D+01  .000000000000D+00 -.204890966415D-07  .300000000000D+01
     .525606000000D+06  .400000000000D+01
18 17  5  6  3 59 44.0  .614075455815D-03  .193267624127D-11  .000000000000D+00
     .900000000000D+01 -.690000000000D+02  .540379651839D-08  .105099949291D+01
    -.359117984772D-05  .180365085835D-01  .105369836092D-04  .515376408768D+04
     .532784000000D+06 -.335276126862D-06 -.102041022990D+01 -.100582838058D-06
     .925360300765D+00  .166468750000D+03 -.180758740262D+01 -.871143429478D-08
    -.425017703693D-09  .100000000000D+01  .194700000000D+04  .000000000000D+00
     .240000000000D+01  .000000000000D+00 -.111758708954D-07  .900000000000D+01
     .525606000000D+06  .400000000000D+01
22 17  5  6  3 59 44.0  .191289000213D-04 -.120508047985D-10  .000000000000D+00
     .650000000000D+02 -.425625000000D+02  .539201031316D-08 -.894553495984D+00
    -.223889946938D-05  .752996187657D-02  .939331948757D-05  .515383774185D+04
     .532784000000D+06 -.149011611938D-06 -.102050872086D+01  .100582838058D-06
     .923393793618D+00  .177656250000D+03 -.174155682498D+01 -.854428447517D-08
    -.320013329840D-09  .100000000000D+01  .194700000000D+04  .000000000000D+00
     .240000000000D+01  .000000000000D+00 -.176951289177D-07  .650000000000D+02
     .525606000000D+06  .400000000000D+01
 1 17  5  6  4  0  0.0  .542877241969D-04  .568434188608D-12  .000000000000D+00
     .390000000000D+02 -.275625000000D+02  .480591447134D-08 -.251459446730D+01
    -.156089663506D-05  .657773506828D-02  .466965138912D-05  .515368403625D+04
     .532800000000D+06  .428408384323D-07 -.201803298717D+01 -.204890966415D-06
     .966983731645D+00  .292875000000D+03  .539699099971D+00 -.824427197845D-08
     .410731394325D-10  .100000000000D+01  .194700000000D+04  .000000000000D+00
     .240000000000D+01  .000000000000D+00  .558793544769D-08  .390000000000D+02
     .525606000000D+06  .400000000000D+01
 3 17  5  6  4  0  0.0 -.101730227470D-03  .159161572810D-11  .000000000000D+00
     .410000000000D+02 -.396562500000D+02  .446982904346D-08  .313154519617D+01
    -.216811895370D-05  .628013047390D-03  .986829400063D-05  .515375054932D+04
     .532800000000D+06 -.372529029846D-07 -.975334420605D+00  .130385160446D-07
     .959641711535D+00  .187312500000D+03  .633128576689D-01 -.794425948172D-08
    -.312155859687D-09  .100000000000D+01  .194700000000D+04  .000000000000D+00
     .240000000000D+01  .000000000000D+00  .232830643654D-08  .410000000000D+02
     .525606000000D+06  .400000000000D+01
 4 17  5  6  4  0  0.0  .301655381918D-05  .682121026330D-12  .000000000000D+00
     .102000000000D+03 -.396875000000D+02  .515057168484D-08  .706182682543D+00
    -.206753611565D-05  .919037905987D-02  .966712832451D-05  .515375288773D+04
     .532800000000D+06 -.160187482834D-06  .219170860564D+01  .409781932831D-07
     .981963695324D+00  .205843750000D+03  .900575778196D+00 -.786354183380D-08
    -.258939357292D-09  .100000000000D+01  .194700000000D+04  .000000000000D+00
     .485000000000D+01  .630000000000D+02 -.195577740669D-07  .102000000000D+03
     .525606000000D+06  .400000000000D+01
 5 17  5  6  4  0  0.0 -.473377294838D-04  .181898940355D-11  .000000000000D+00
     .104000000000D+03 -.452187500000D+02  .485305929226D-08  .435023392242D+00
    -.219792127609D-05  .494977075141D-02  .103898346424D-04  .515374320221D+04
     .532800000000D+06  .204890966415D-07 -.991880961812D+00  .353902578354D-07
     .946595574877D+00  .167187500000D+03  .534966924251D+00 -.824462913618D-08
    -.406445501515D-09  .100000000000D+01  .194700000000D+04  .000000000000D+00
     .240000000000D+01  .000000000000D+00 -.107102096081D-07  .104000000000D+03
     .525606000000D+06  .400000000000D+01
 6 17  5  6  4  0  0.0  .347143504769D-03  .500222085975D-11  .000000000000D+00
     .740000000000D+02 -.285000000000D+02  .490163274411D-08 -.240049859849D+01
    -.140070915222D-05  .810767523944D-03  .471808016300D-05  .515366125298D+04
     .532800000000D+06 -.782310962677D-07 -.202641559847D+01  .130385160446D-07
     .966764712328D+00  .292562500000D+03 -.113353374679D+01 -.828891669522D-08
     .200008331150D-10  .100000000000D+01  .194700000000D+04  .000000000000D+00
     .240000000000D+01  .000000000000D+00  .465661287308D-08  .740000000000D+02
     .525606000000D+06  .400000000000D+01
 7 17  5  6  4  0  0.0  .354675576091D-03 -.420641299570D-11  .000000000000D+00
     .860000000000D+02  .312500000000D+01  .459483425043D-08 -.313494409322D+01
     .102445483208D-06  .104251332814D-01  .424124300480D-05  .515374112511D+04
     .532800000000D+06 -.689178705215D-07  .113926029865D+01 -.113621354103D-06
     .962456611690D+00  .299593750000D+03 -.260572593232D+01 -.812962434577D-08
    -.907180644858D-10  .100000000000D+01  .194700000000D+04  .000000000000D+00
     .240000000000D+01  .000000000000D+00 -.111758708954D-07  .860000000000D+02
     .525606000000D+06  .400000000000D+01
 8 17  5  6  4  0  0.0 -.587282702327D-04 -.125055521494D-11  .000000000000D+00
     .800000000000D+01  .328437500000D+02  .436946772015D-08  .170545728646D+00
     .176019966602D-05  .259331299458D-02  .823102891445D-05  .515362923050D+04
     .532800000000D+06 -.335276126862D-07 -.308059300295D+01 -.372529029846D-08
     .966870871904D+00  .221437500000D+03 -.703421534388D+00 -.807747931658D-08
     .422517599554D-09  .100000000000D+01  .194700000000D+04  .000000000000D+00
     .240000000000D+01  .000000000000D+00  .512227416039D-08  .800000000000D+01
     .525606000000D+06  .400000000000D+01
 9 17  5  6  4  0  0.0  .357348471880D-03  .784439180279D-11  .000000000000D+00
     .300000000000D+02  .688437500000D+02  .461269213714D-08 -.329055721577D+00
     .351294875145D-05  .781894661486D-03  .879541039467D-05  .515364312935D+04
     .532800000000D+06 -.670552253723D-07  .608444994005D-01  .316649675369D-07
     .954038316897D+00  .205906250000D+03  .190454751363D+01 -.809533720329D-08
     .163935399996D-09  .100000000000D+01  .194700000000D+04  .000000000000D+00
     .240000000000D+01  .000000000000D+00  .139698386192D-08  .300000000000D+02
     .525606000000D+06  .400000000000D+01
10 17  5  6  4  0  0.0 -.607450492680D-04  .909494701773D-11  .000000000000D+00
     .270000000000D+02 -.523750000000D+02  .455626121514D-08  .156650743281D+01
    -.253878533840D-05  .247604760807D-02  .105202198029D-04  .515367887306D+04
     .532800000000D+06 -.186264514923D-08 -.979066391919D+00  .484287738800D-07
     .959809064974D+00  .178187500000D+03 -.277570763582D+01 -.803140596887D-08
    -.350014579512D-09  .100000000000D+01  .194700000000D+04  .000000000000D+00
     .240000000000D+01  .000000000000D+00  .186264514923D-08  .270000000000D+02
     .525606000000D+06  .400000000000D+01
11 17  5  6  4  0  0.0 -.686114653945D-03 -.261479726760D-11  .000000000000D+00
     .840000000000D+02  .192812500000D+02  .620954436673D-08 -.312835382721D+01
     .862404704094D-06  .167036986677D-01  .362098217010D-05  .515370814514D+04
     .532800000000D+06  .366941094398D-06 -.241901120212D+01  .558793544769D-07
     .900614125668D+00  .273343750000D+03  .163795795808D+01 -.878215152615D-08
     .286797660559D-09  .100000000000D+01  .194700000000D+04  .000000000000D+00
     .340000000000D+01  .000000000000D+00 -.121071934700D-07  .840000000000D+02
     .525606000000D+06  .400000000000D+01
